OPTICUBE 04             
1 41851U 16067D   19097.81585955  .00000730  00000-0  69050-4 0  9995
2 41851  97.9129 194.5779 0007241 262.1114  97.9285 14.96779492131161
AEROCUBE 8D             
1 41852U 16067E   19097.81384972  .00000842  00000-0  79089-4 0  9999
2 41852  97.9140 194.4016 0008032 262.1024  97.9285 14.96669870131143
AEROCUBE 8C             
1 41853U 16067F   19097.83502523 -.00000063  00000-0 -21245-6 0  9996
2 41853  97.9142 194.3653 0008481 265.5652  94.4600 14.96637198131145
PROMETHEUS 2-1          
1 41854U 16067G   19097.87909740  .00001003  00000-0  92862-4 0  9997
2 41854  97.9146 194.5129 0008715 262.3401  97.6831 14.96826182131152
PROMETHEUS 2-3          
1 41855U 16067H   19097.88166727  .00001053  00000-0  97134-4 0  9991
2 41855  97.9150 194.5285 0008837 262.9916  97.0300 14.96831309131155
INS-1B                  
1 41954U 17008G   19097.85485484  .00001501  00000-0  65307-4 0  9993
2 41954  97.4067 163.8207 0010341  46.5684 313.6412 15.23748712118861
BGUSAT                  
1 41999U 17008BD  19097.74136831  .00002532  00000-0  10185-3 0  9997
2 41999  97.4126 165.7804 0009597  61.4708 298.7495 15.25786172118323
DIDO-2                  
1 42000U 17008BE  19096.92349947  .00001084  00000-0  48013-4 0  9997
2 42000  97.4081 163.4373 0010069  65.8902 294.3387 15.23751590118127
PEASSS                  
1 42015U 17008BV  19097.78553474  .00001355  00000-0  57693-4 0  9995
2 42015  97.4084 165.1354 0007986  69.7928 290.4167 15.24680406118793
AL-FARABI 1             
1 42016U 17008BW  19097.09147447  .00001720  00000-0  71233-4 0  9991
2 42016  97.4100 164.9083 0007860  71.4153 288.7938 15.25262825118833
NAYIF-1 (EO-88)         
1 42017U 17008BX  19096.88370242  .00001752  00000-0  72438-4 0  9992
2 42017  97.4097 164.7120 0007839  72.3070 287.9023 15.25292459118824
PHOENIX                 
1 42706U 98067LP  19097.73795407  .00186604  24857-4  45349-3 0  9990
2 42706  51.6226 275.0626 0005838 276.7824  83.2519 15.95862155108410
ALTAIR PATHFINDER       
1 42711U 98067LS  19097.85809557  .00035265  00000-0  22816-3 0  9991
2 42711  51.6345 301.0320 0003687 213.7884 146.2881 15.75703871107740
SHARC                   
1 42712U 98067LT  19097.87539155  .00241398  33967-4  59807-3 0  9996
2 42712  51.6259 291.2715 0006475 257.1653 102.8632 15.95424134108115
ZA-AEROSAT              
1 42713U 98067LU  19097.77331052  .00113328  15880-4  36017-3 0  9995
2 42713  51.6297 281.4558 0004690 251.5841 108.4655 15.91024390107996
CSUNSAT1                
1 42715U 98067LW  19097.75107188  .00200474  27441-4  43403-3 0  9998
2 42715  51.6252 276.7116 0006414 266.9176  93.1099 15.97927280108059
NJUST-1                 
1 42722U 98067MB  19097.82085648  .00084307  00000-0  34610-3 0  9993
2 42722  51.6358 287.5113 0004725 258.5136 292.6870 15.85264934106987
NSIGHT                  
1 42726U 98067MF  19097.84671269  .00019855  00000-0  17713-3 0  9990
2 42726  51.6372 315.4543 0004649 248.8373 111.2127 15.68421547106533
SNUSAT-1B               
1 42727U 98067MG  19089.91797841  .06519165  12339-4  59073-3 0  9997
2 42727  51.6087 308.8243 0009316 268.9251  91.0707 16.37980460105869
BEEAGLESAT              
1 42736U 98067MR  19096.96798399  .00273836  43032-4  49308-3 0  9999
2 42736  51.6240 278.8751 0007902 276.3208  83.6902 16.01058735106849
UCLSAT                  
1 42765U 17036A   19097.11695067  .00001450  00000-0  65370-4 0  9997
2 42765  97.3594 156.6527 0013091 121.2804 238.9717 15.22551296 99426
LITUANICASAT-2          
1 42768U 17036D   19097.81838939  .00002494  00000-0  11031-3 0  9997
2 42768  97.3619 156.9100 0017014 111.4651 248.8402 15.22482923 99372
AALTO-1                 
1 42775U 17036L   19097.11108514  .00000941  00000-0  45139-4 0  9999
2 42775  97.3581 155.5594 0015675 112.7300 247.5595 15.21206847 99171
URSA MAIOR              
1 42776U 17036M   19096.74904704  .00001041  00000-0  49415-4 0  9996
2 42776  97.3591 155.3302 0015522 113.9006 246.3858 15.21328927 99123
COMPASS 2               
1 42777U 17036N   19097.84251282  .00001864  00000-0  82915-4 0  9990
2 42777  97.3618 157.3820 0014392 112.0269 248.2498 15.22638892 99336
DIAMOND RED             
1 42783U 17036U   19097.86009708  .00001186  00000-0  54783-4 0  9992
2 42783  97.3593 157.0396 0013805 119.7545 240.5067 15.22038847 99329
PEGASUS                 
1 42784U 17036V   19097.85254583  .00001353  00000-0  61582-4 0  9996
2 42784  97.3597 157.2175 0013682 119.4931 240.7672 15.22311974 99330
DIAMOND GREEN           
1 42785U 17036W   19096.87276609  .00001172  00000-0  54205-4 0  9994
2 42785  97.3598 156.0951 0013645 123.3014 236.9531 15.22035449 99168
DIAMOND BLUE            
1 42786U 17036X   19096.93751468  .00001144  00000-0  52962-4 0  9990
2 42786  97.3597 156.1575 0013478 123.2042 237.0489 15.22035047 99253
NUDTSAT                 
1 42787U 17036Y   19097.49964324  .00001585  00000-0  69884-4 0  9990
2 42787  97.3640 157.4354 0012126 112.9104 247.3415 15.23180640 99158
SUCHAI                  
1 42788U 17036Z   19097.87845999  .00001599  00000-0  71479-4 0  9997
2 42788  97.3600 157.4943 0013282 118.7828 241.4744 15.22693698 99421
SKCUBE                  
1 42789U 17036AA  19096.90404985  .00001474  00000-0  66297-4 0  9991
2 42789  97.3599 156.4965 0013093 121.7893 238.4620 15.22604642 99192
VZLUSAT-1               
1 42790U 17036AB  19096.89531719  .00002066  00000-0  90187-4 0  9990
2 42790  97.3607 156.8456 0012735 121.3437 238.9048 15.23188170 99211
ROBUSTA-1B              
1 42792U 17036AD  19097.82839863  .00001457  00000-0  65249-4 0  9991
2 42792  97.3597 157.5311 0012708 119.5172 240.7333 15.22770915 99350
CICERO 6                
1 42793U 17036AE  19097.73928532  .00001029  00000-0  47441-4 0  9993
2 42793  97.3582 157.2861 0011900 120.7901 239.4509 15.22428952 99406
D-SAT                   
1 42794U 17036AF  19096.66070065  .00000363  00000-0  36850-4 0  9996
2 42794  97.5492 144.5382 0127304  25.7570 334.9914 14.91052191 97455
TOKI                    
1 42820U 98067MU  19097.77542831  .00224680  31769-4  47117-3 0  9994
2 42820  51.6247 279.8421 0006222 265.9570  94.0727 15.98466025100367
MAZAALAI (NUMSAT-1)     
1 42822U 98067MW  19097.82670660  .00174622  23077-4  43622-3 0  9994
2 42822  51.6274 281.7554 0005720 262.2294  97.8065 15.95379378100326
BRAC ONNESHA            
1 42823U 98067MX  19097.75277209  .00202889  27602-4  46331-3 0  9994
2 42823  51.6250 281.2245 0006878 262.9697  97.0529 15.96957777100325
NIGERIAEDUSAT-1         
1 42824U 98067MY  19097.81953102  .00164386  21637-4  42427-3 0  9998
2 42824  51.6278 282.5273 0006457 258.7901 101.2381 15.94788434100307
CORVUS BC2              
1 42846U 17042X   19096.77659357  .00000239  00000-0  28897-4 0  9994
2 42846  97.5741 353.6522 0008317 304.1231  55.9199 14.91941750 94145
CORVUS BC1              
1 42847U 17042Y   19096.93590751  .00000253  00000-0  30258-4 0  9995
2 42847  97.5740 353.8998 0007962 302.8524  57.1929 14.92041894 94167
SILU-1 (SILKROAD 1)     
1 42903U 17021F   19097.84695068  .01223457  87390-5  55248-3 0  9994
2 42903  42.7591 311.8437 0015085 264.7135 167.4697 16.20828513 96643
MIRATA                  
1 43015U 17073C   19097.83122467  .00002042  00000-0  16371-3 0  9999
2 43015  97.7193  21.8479 0256967  32.2274 329.4352 14.78807020 74676
MAKERSAT 0              
1 43016U 17073D   19097.76669987  .00001414  00000-0  11480-3 0  9993
2 43016  97.7222  21.9782 0258916  32.6838 329.0100 14.78610827 74656
ASTERIA                 
1 43020U 98067NH  19097.83328911  .00023946  00000-0  21961-3 0  9996
2 43020  51.6424 326.0194 0002461 196.2209 163.8709 15.67614604 78571
DELLINGR (RBLE)         
1 43021U 98067NJ  19097.88873900  .00009035  00000-0  10791-3 0  9997
2 43021  51.6391 334.5496 0002600 175.5369 184.5648 15.61856452 78469
AEROCUBE 7B (OCSD B)    
1 43042U 17071F   19097.06468683  .00004985  00000-0  13000-3 0  9999
2 43042  51.6390  47.8700 0003813 248.5562 111.5016 15.40659680 74888
AEROCUBE 7C (OCSD C)    
1 43043U 17071G   19096.93516371  .00004960  00000-0  12923-3 0  9999
2 43043  51.6391  48.5180 0004158 252.9097 107.1433 15.40699918 74832
CHEFSAT                 
1 43044U 17071H   19097.10685985  .00008199  00000-0  19235-3 0  9999
2 43044  51.6399  43.7564 0003782 252.6093 107.4479 15.42954282 74911
ASGARDIA 1              
1 43049U 17071N   19097.41198348  .00004216  00000-0  11085-3 0  9991
2 43049  51.6424  45.7149 0001463 269.7551  90.3363 15.40828447 74900
ISARA                   
1 43050U 17071P   19097.09992520  .00006743  00000-0  16221-3 0  9995
2 43050  51.6391  44.4271 0001390 275.6812  84.4015 15.42513842 74890
PROPCUBE 2 (FAUNA)      
1 43052U 17071R   19097.81908737  .00003861  00000-0  10154-3 0  9991
2 43052  51.6398  43.2095 0001558 277.1914  82.8893 15.41075881 74976
CORVUS BC3              
1 43118U 18004H   19097.71767909  .00000932  00000-0  42988-4 0  9991
2 43118  97.4929 165.2918 0011627 138.7349 221.4773 15.22715529 68529
MICROMAS-2A             
1 43131U 18004W   19096.72998728  .00002452  00000-0  10467-3 0  9996
2 43131  97.4952 164.8371 0010642 142.4820 217.7161 15.23826083 68405
CICERO 7                
1 43143U 18004AJ  19097.08919690  .00001748  00000-0  75115-4 0  9999
2 43143  97.4942 165.4048 0008511 148.1243 212.0511 15.24012642 68472
GOMX-4B                 
1 43196U 18015E   19097.86883890  .00001548  00000-0  66846-4 0  9996
2 43196  97.3798 226.4806 0018334 195.5289 164.5388 15.23866176 65409
GOMX-4A                 
1 43197U 18015F   19097.74321737  .00000558  00000-0  25934-4 0  9994
2 43197  97.3794 226.3749 0018631 196.1056 271.9296 15.23952827 65398
1KUNS-PF                
1 43466U 98067NP  19097.05101606  .00020231  00000-0  22000-3 0  9993
2 43466  51.6388 342.4410 0001447 149.8859 210.2219 15.63438691 51542
